{
    "links": {
        "self": "http://www.neowsapp.com/rest/v1/neo/3410588?api_key=iIulBulltgU6a56xZRHN4H3l9WmuAYTsLGpBGhQ2"
    },
    "id": "3410588",
    "neo_reference_id": "3410588",
    "name": "(2008 JS26)",
    "designation": "2008 JS26",
    "nasa_jpl_url": "http://ssd.jpl.nasa.gov/sbdb.cgi?sstr=3410588",
    "absolute_magnitude_h": 23.7,
    "estimated_diameter": {
        "kilometers": {
            "estimated_diameter_min": 0.0483676488,
            "estimated_diameter_max": 0.1081533507
        },
        "meters": {
            "estimated_diameter_min": 48.3676488219,
            "estimated_diameter_max": 108.1533506775
        },
        "miles": {
            "estimated_diameter_min": 0.0300542543,
            "estimated_diameter_max": 0.0672033557
        },
        "feet": {
            "estimated_diameter_min": 158.6865169607,
            "estimated_diameter_max": 354.8338390368
        }
    },
    "is_potentially_hazardous_asteroid": false,
    "close_approach_data": [
        {
            "close_approach_date": "2008-06-08",
            "close_approach_date_full": "2008-Jun-08 23:04",
            "epoch_date_close_approach": 1212966240000,
            "relative_velocity": {
                "kilometers_per_second": "8.1454366533",
                "kilometers_per_hour": "29323.571951894",
                "miles_per_hour": "18220.5272497754"
            },
            "miss_distance": {
                "astronomical": "0.0595773703",
                "lunar": "23.1755970467",
                "kilometers": "8912647.697081261",
                "miles": "5538062.4755969618"
            },
            "orbiting_body": "Earth"
        }
    ],
    "orbital_data": {
        "orbit_id": "16",
        "orbit_determination_date": "2017-04-06 09:03:26",
        "first_observation_date": "2008-05-14",
        "last_observation_date": "2008-06-02",
        "data_arc_in_days": 19,
        "observations_used": 50,
        "orbit_uncertainty": "7",
        "minimum_orbit_intersection": ".0475376",
        "jupiter_tisserand_invariant": "3.512",
        "epoch_osculation": "2459000.5",
        "eccentricity": ".5120979487789232",
        "semi_major_axis": "2.15437654801857",
        "inclination": "7.19837079026017",
        "ascending_node_longitude": "73.47454648716514",
        "orbital_period": "1154.996973138839",
        "perihelion_distance": "1.051124736880843",
        "perihelion_argument": "200.7911475153997",
        "aphelion_distance": "3.257628359156297",
        "perihelion_time": "2459263.905249444713",
        "mean_anomaly": "277.8994473531854",
        "mean_motion": ".3116891285192357",
        "equinox": "J2000",
        "orbit_class": {
            "orbit_class_type": "AMO",
            "orbit_class_description": "Near-Earth asteroid orbits similar to that of 1221 Amor",
            "orbit_class_range": "1.017 AU < q (perihelion) < 1.3 AU"
        }
    },
    "is_sentry_object": false
}